{
  "type": "FeatureCollection",
  "features": [
    {
      "type": "Feature",
      "properties": {
        "norad_id": 30334,
        "name": "FENGYUN 1C DEB",
        "group": "fengyun-1c-debris",
        "lat": -62.33711468895871,
        "lon": 111.62908571136317,
        "alt_km": 830.4650546570838,
        "timestamp": "2025-12-20T14:38:02.245493+00:00",
        "meta_object_name": "FENGYUN 1C DEB",
        "meta_object_id": "1999-025AAV",
        "meta_epoch": "2025-12-19T20:32:50.539200",
        "meta_mean_motion": 13.92398072,
        "meta_eccentricity": 0.01448699,
        "meta_inclination": 99.0216,
        "meta_ra_of_asc_node": 93.2526,
        "meta_arg_of_pericenter": 322.3105,
        "meta_mean_anomaly": 159.1654,
        "meta_ephemeris_type": 0,
        "meta_classification_type": "U",
        "meta_norad_cat_id": 30334,
        "meta_element_set_no": 999,
        "meta_rev_at_epoch": 95320,
        "meta_bstar": 0.00098181932,
        "meta_mean_motion_dot": 1.332e-05,
        "meta_mean_motion_ddot": 0,
        "tle_line1": "1 30334U 99025AAV 25353.85614050  .00001332  00000+0  98182-3 0  9994",
        "tle_line2": "2 30334  99.0216  93.2526 0144869 322.3105 159.1654 13.92398072953201"
      },
      "geometry": {
        "type": "Point",
        "coordinates": [
          111.62908571136317,
          -62.33711468895871
        ]
      }
    },
    {
      "type": "Feature",
      "properties": {
        "norad_id": 30335,
        "name": "FENGYUN 1C DEB",
        "group": "fengyun-1c-debris",
        "lat": 38.62953267482173,
        "lon": -21.481911922221464,
        "alt_km": 852.5088379732588,
        "timestamp": "2025-12-20T14:38:02.245504+00:00",
        "meta_object_name": "FENGYUN 1C DEB",
        "meta_object_id": "1999-025AAW",
        "meta_epoch": "2025-12-19T23:17:14.847936",
        "meta_mean_motion": 14.01362154,
        "meta_eccentricity": 0.013316,
        "meta_inclination": 98.9046,
        "meta_ra_of_asc_node": 345.0914,
        "meta_arg_of_pericenter": 111.4509,
        "meta_mean_anomaly": 305.1333,
        "meta_ephemeris_type": 0,
        "meta_classification_type": "U",
        "meta_norad_cat_id": 30335,
        "meta_element_set_no": 999,
        "meta_rev_at_epoch": 96692,
        "meta_bstar": -1.6104e-05,
        "meta_mean_motion_dot": -6.8e-07,
        "meta_mean_motion_ddot": 0,
        "tle_line1": "1 30335U 99025AAW 25353.97031074 -.00000068  00000+0 -16104-4 0  9999",
        "tle_line2": "2 30335  98.9046 345.0914 0133160 111.4509 305.1333 14.01362154966920"
      },
      "geometry": {
        "type": "Point",
        "coordinates": [
          -21.481911922221464,
          38.62953267482173
        ]
      }
    },
    {
      "type": "Feature",
      "properties": {
        "norad_id": 30336,
        "name": "FENGYUN 1C DEB",
        "group": "fengyun-1c-debris",
        "lat": 32.95820886207321,
        "lon": 9.698096925438934,
        "alt_km": 804.5836192486759,
        "timestamp": "2025-12-20T14:38:02.245513+00:00",
        "meta_object_name": "FENGYUN 1C DEB",
        "meta_object_id": "1999-025AAX",
        "meta_epoch": "2025-12-20T01:12:06.632064",
        "meta_mean_motion": 14.19315473,
        "meta_eccentricity": 0.00431612,
        "meta_inclination": 98.5998,
        "meta_ra_of_asc_node": 14.7856,
        "meta_arg_of_pericenter": 347.4366,
        "meta_mean_anomaly": 67.6274,
        "meta_ephemeris_type": 0,
        "meta_classification_type": "U",
        "meta_norad_cat_id": 30336,
        "meta_element_set_no": 999,
        "meta_rev_at_epoch": 97706,
        "meta_bstar": 0.00025984374,
        "meta_mean_motion_dot": 5.08e-06,
        "meta_mean_motion_ddot": 0,
        "tle_line1": "1 30336U 99025AAX 25354.05007676  .00000508  00000+0  25984-3 0  9993",
        "tle_line2": "2 30336  98.5998  14.7856 0043161 347.4366  67.6274 14.19315473977063"
      },
      "geometry": {
        "type": "Point",
        "coordinates": [
          9.698096925438934,
          32.95820886207321
        ]
      }
    },
    {
      "type": "Feature",
      "properties": {
        "norad_id": 30338,
        "name": "FENGYUN 1C DEB",
        "group": "fengyun-1c-debris",
        "lat": 46.0000128512934,
        "lon": -106.80333763998283,
        "alt_km": 572.5026228608222,
        "timestamp": "2025-12-20T14:38:02.245523+00:00",
        "meta_object_name": "FENGYUN 1C DEB",
        "meta_object_id": "1999-025AAZ",
        "meta_epoch": "2025-12-20T04:19:57.862848",
        "meta_mean_motion": 14.47604995,
        "meta_eccentricity": 0.02721297,
        "meta_inclination": 98.4593,
        "meta_ra_of_asc_node": 63.9017,
        "meta_arg_of_pericenter": 171.3139,
        "meta_mean_anomaly": 248.275,
        "meta_ephemeris_type": 0,
        "meta_classification_type": "U",
        "meta_norad_cat_id": 30338,
        "meta_element_set_no": 999,
        "meta_rev_at_epoch": 98252,
        "meta_bstar": 0.00065164959,
        "meta_mean_motion_dot": 3.776e-05,
        "meta_mean_motion_ddot": 0,
        "tle_line1": "1 30338U 99025AAZ 25354.18053082  .00003776  00000+0  65165-3 0  9996",
        "tle_line2": "2 30338  98.4593  63.9017 0272129 171.3139 248.2750 14.47604995982524"
      },
      "geometry": {
        "type": "Point",
        "coordinates": [
          -106.80333763998283,
          46.0000128512934
        ]
      }
    },
    {
      "type": "Feature",
      "properties": {
        "norad_id": 30339,
        "name": "FENGYUN 1C DEB",
        "group": "fengyun-1c-debris",
        "lat": 79.76820936641528,
        "lon": -17.506546793244272,
        "alt_km": 745.3918044730026,
        "timestamp": "2025-12-20T14:38:02.245533+00:00",
        "meta_object_name": "FENGYUN 1C DEB",
        "meta_object_id": "1999-025ABA",
        "meta_epoch": "2025-12-20T05:59:12.136128",
        "meta_mean_motion": 14.3826018,
        "meta_eccentricity": 0.00194669,
        "meta_inclination": 98.9744,
        "meta_ra_of_asc_node": 101.013,
        "meta_arg_of_pericenter": 61.2372,
        "meta_mean_anomaly": 329.0593,
        "meta_ephemeris_type": 0,
        "meta_classification_type": "U",
        "meta_norad_cat_id": 30339,
        "meta_element_set_no": 999,
        "meta_rev_at_epoch": 97535,
        "meta_bstar": 0.0016568092,
        "meta_mean_motion_dot": 5.004e-05,
        "meta_mean_motion_ddot": 0,
        "tle_line1": "1 30339U 99025ABA 25354.24944602  .00005004  00000+0  16568-2 0  9999",
        "tle_line2": "2 30339  98.9744 101.0130 0019466  61.2372 329.0593 14.38260180975357"
      },
      "geometry": {
        "type": "Point",
        "coordinates": [
          -17.506546793244272,
          79.76820936641528
        ]
      }
    },
    {
      "type": "Feature",
      "properties": {
        "norad_id": 30340,
        "name": "FENGYUN 1C DEB",
        "group": "fengyun-1c-debris",
        "lat": 80.90274104464999,
        "lon": -30.52480191648201,
        "alt_km": 773.5215221040298,
        "timestamp": "2025-12-20T14:38:02.245543+00:00",
        "meta_object_name": "FENGYUN 1C DEB",
        "meta_object_id": "1999-025ABB",
        "meta_epoch": "2025-12-20T04:03:35.735904",
        "meta_mean_motion": 14.04601368,
        "meta_eccentricity": 0.01462387,
        "meta_inclination": 99.0001,
        "meta_ra_of_asc_node": 50.8329,
        "meta_arg_of_pericenter": 114.3224,
        "meta_mean_anomaly": 268.4539,
        "meta_ephemeris_type": 0,
        "meta_classification_type": "U",
        "meta_norad_cat_id": 30340,
        "meta_element_set_no": 999,
        "meta_rev_at_epoch": 96885,
        "meta_bstar": 0.0003081644,
        "meta_mean_motion_dot": 4.99e-06,
        "meta_mean_motion_ddot": 0,
        "tle_line1": "1 30340U 99025ABB 25354.16916361  .00000499  00000+0  30816-3 0  9999",
        "tle_line2": "2 30340  99.0001  50.8329 0146238 114.3224 268.4539 14.04601368968855"
      },
      "geometry": {
        "type": "Point",
        "coordinates": [
          -30.52480191648201,
          80.90274104464999
        ]
      }
    },
    {
      "type": "Feature",
      "properties": {
        "norad_id": 30341,
        "name": "FENGYUN 1C DEB",
        "group": "fengyun-1c-debris",
        "lat": 51.65787879550547,
        "lon": -128.68584367849977,
        "alt_km": 737.5713541180239,
        "timestamp": "2025-12-20T14:38:02.245553+00:00",
        "meta_object_name": "FENGYUN 1C DEB",
        "meta_object_id": "1999-025ABC",
        "meta_epoch": "2025-12-20T05:03:14.008320",
        "meta_mean_motion": 14.34207094,
        "meta_eccentricity": 0.00516905,
        "meta_inclination": 99.2195,
        "meta_ra_of_asc_node": 242.7386,
        "meta_arg_of_pericenter": 36.2154,
        "meta_mean_anomaly": 116.4751,
        "meta_ephemeris_type": 0,
        "meta_classification_type": "U",
        "meta_norad_cat_id": 30341,
        "meta_element_set_no": 999,
        "meta_rev_at_epoch": 97188,
        "meta_bstar": 0.002013371,
        "meta_mean_motion_dot": 5.685e-05,
        "meta_mean_motion_ddot": 0,
        "tle_line1": "1 30341U 99025ABC 25354.21057880  .00005685  00000+0  20134-2 0  9991",
        "tle_line2": "2 30341  99.2195 242.7386 0051690  36.2154 116.4751 14.34207094971884"
      },
      "geometry": {
        "type": "Point",
        "coordinates": [
          -128.68584367849977,
          51.65787879550547
        ]
      }
    }
  ]
}